[{"OBJECT_NAME":"STARLINK-6369","OBJECT_ID":"2023-099AY","EPOCH":"2026-03-09T22:00:01.999584","MEAN_MOTION":15.11990276,"ECCENTRICITY":0.00024259,"INCLINATION":43.0006,"RA_OF_ASC_NODE":221.4396,"ARG_OF_PERICENTER":272.2274,"MEAN_ANOMALY":92.7048,"EPHEMERIS_TYPE":0,"CLASSIFICATION_TYPE":"U","NORAD_CAT_ID":57374,"ELEMENT_SET_NO":999,"REV_AT_EPOCH":562,"BSTAR":0.0064958778,"MEAN_MOTION_DOT":0.00115097,"MEAN_MOTION_DDOT":0},{"OBJECT_NAME":"GEESAT-4 05","OBJECT_ID":"2025-170E","EPOCH":"2026-03-09T22:10:53.623200","MEAN_MOTION":15.15083101,"ECCENTRICITY":0.00102728,"INCLINATION":50.0002,"RA_OF_ASC_NODE":229.6714,"ARG_OF_PERICENTER":163.1129,"MEAN_ANOMALY":197.0167,"EPHEMERIS_TYPE":0,"CLASSIFICATION_TYPE":"U","NORAD_CAT_ID":65123,"ELEMENT_SET_NO":999,"REV_AT_EPOCH":3229,"BSTAR":0.00052791785,"MEAN_MOTION_DOT":9.735e-5,"MEAN_MOTION_DDOT":0}]
